0 SL-3 R/B
1 06080U 72049B   13282.42230950 -.00000012  00000-0 -16049-4 0  4351
2 06080 081.2417 198.1683 0049431 021.8997 118.7961 14.00719129108660
0 SL-3 R/B
1 06080U 72049B   13283.83450312  .00000068  00000-0  37256-4 0  4366
2 06080 081.2417 196.8146 0049369 017.9908 039.8847 14.00718382108865
0 SL-3 R/B
1 06080U 72049B   13286.35074338  .00000205  00000-0  12820-3 0  4380
2 06080 081.2417 194.4024 0049232 010.9813 128.2476 14.00717638109215
0 SL-3 R/B
1 06080U 72049B   13287.83513015  .00000214  00000-0  13414-3 0  4395
2 06080 081.2416 192.9795 0049123 006.8202 053.4193 14.00718207109428
0 SL-3 R/B
1 06080U 72049B   13288.83587373  .00000176  00000-0  10862-3 0  4407
2 06080 081.2415 192.0202 0049071 004.0274 059.7580 14.00718927109565
0 SL-3 R/B
1 06080U 72049B   13289.83592368  .00000123  00000-0  73425-4 0  4416
2 06080 081.2413 191.0616 0049011 001.2517 062.5850 14.00719927109703
0 SL-3 R/B
1 06080U 72049B   13291.12985622  .00000041  00000-0  19267-4 0  4424
2 06080 081.2411 189.8214 0048942 357.6581 107.3429 14.00720901109884
0 SL-3 R/B
1 06080U 72049B   13292.20189067 -.00000014  00000-0 -17572-4 0  4433
2 06080 081.2409 188.7937 0048888 354.7003 113.1457 14.00721418110036
0 SL-3 R/B
1 06080U 72049B   13293.20201287 -.00000039  00000-0 -34109-4 0  4446
2 06080 081.2408 187.8350 0048843 351.8809 116.3897 14.00721586110171
0 SL-3 R/B
1 06080U 72049B   13294.27941337 -.00000041  00000-0 -35293-4 0  4450
2 06080 081.2408 186.8021 0048801 348.8729 149.2922 14.00721500110323
0 SL-3 R/B
1 06080U 72049B   13295.83705750  .00000018  00000-0  43314-5 0  4467
2 06080 081.2407 185.3089 0048745 344.4517 083.9475 14.00720912110541
